NORAD_CAT_ID,OBJECT_NAME,OBJECT_TYPE,EPOCH,MEAN_MOTION,ECCENTRICITY,INCLINATION,RA_OF_ASC_NODE,ARG_OF_PERICENTER,MEAN_ANOMALY,BSTAR,MEAN_MOTION_DOT,MEAN_MOTION_DDOT,TLE_LINE0,TLE_LINE1,TLE_LINE2,SEMIMAJOR_AXIS,PERIOD,APOGEE,PERIGEE,DECAYED
53984.0,STARLINK-5142,PAYLOAD,2022-11-16 20:00:01,15.52577372,0.0001416,53.2176,245.0176,57.4271,80.9815,-0.019996,-0.01128043,0.0,0 STARLINK-5142,1 53984U 22125W   22320.83334491 -.01128043  00000-0 -19996-1 0  9991,2 53984  53.2176 245.0176 0001416  57.4271  80.9815 15.52577372  6975,6787.340999999999,92.749,410.167,408.245,0.0
53984.0,STARLINK-5142,PAYLOAD,2022-11-16 22:00:08,15.52373957,0.0001349,53.2175,244.618,62.4002,182.4656,-0.020156,-0.01128611,0.0,0 STARLINK-5142,1 53984U 22125W   22320.91675926 -.01128611  00000-0 -20156-1 0  9992,2 53984  53.2175 244.6180 0001349  62.4002 182.4656 15.52373957  1303,6787.934,92.761,410.715,408.883,0.0
53984.0,STARLINK-5142,PAYLOAD,2022-11-17 14:00:01,15.50643459,0.0001256,53.2173,241.4246,68.7617,301.4981,-0.014866,-0.00796201,0.0,0 STARLINK-5142,1 53984U 22125W   22321.58334491 -.00796201  00000-0 -14866-1 0  9991,2 53984  53.2173 241.4246 0001256  68.7617 301.4981 15.50643459  1306,6792.983,92.865,415.701,413.995,0.0
53984.0,STARLINK-5142,PAYLOAD,2022-11-17 20:00:01,15.50025461,0.0001313,53.2172,240.2289,74.3842,252.0289,-0.002001,-0.00112955,0.0,0 STARLINK-5142,1 53984U 22125W   22321.83334491 -.00112955  00000-0 -20010-2 0  9996,2 53984  53.2172 240.2289 0001313  74.3842 252.0289 15.50025461  7121,6794.7890000000025,92.902,417.546,415.762,0.0
53984.0,STARLINK-5142,PAYLOAD,2022-11-17 22:00:00,15.50071285,0.0001338,53.2172,239.8312,70.5199,1.1373,-0.004318,-0.0023975,0.0,0 STARLINK-5142,1 53984U 22125W   22321.91667824 -.00239750  00000-0 -43180-2 0  9990,2 53984  53.2172 239.8312 0001338  70.5199   1.1373 15.50071285  1308,6794.655,92.899,417.429,415.611,0.0
53984.0,STARLINK-5142,PAYLOAD,2022-11-18 14:00:01,15.49838649,0.0001533,53.2157,236.6491,68.97800000000001,124.4326,0.00080131,0.00045216,0.0,0 STARLINK-5142,1 53984U 22125W   22322.58334491  .00045216  00000-0  80131-3 0  9993,2 53984  53.2157 236.6491 0001533  68.9780 124.4326 15.49838649  7247,6795.335,92.913,418.241,416.158,0.0
53984.0,STARLINK-5142,PAYLOAD,2022-11-18 22:00:00,15.4988879,0.0001607,53.2157,235.0571,70.0497,184.2419,-0.00027468,-0.00016012,0.0,0 STARLINK-5142,1 53984U 22125W   22322.91667824 -.00016012  00000-0 -27468-3 0  9997,2 53984  53.2157 235.0571 0001607  70.0497 184.2419 15.49888790  1300,6795.188,92.91,418.145,415.961,0.0
53984.0,STARLINK-5142,PAYLOAD,2022-11-19 14:00:01,15.49872894,0.0001518,53.2154,231.87,74.4086,301.7194,0.00097385,0.00055187,0.0,0 STARLINK-5142,1 53984U 22125W   22323.58334491  .00055187  00000-0  97385-3 0  9991,2 53984  53.2154 231.8700 0001518  74.4086 301.7194 15.49872894  7409,6795.235,92.911,418.131,416.068,0.0
53984.0,STARLINK-5142,PAYLOAD,2022-11-19 22:00:00,15.49924299,0.0001588,53.2157,230.278,72.1582,4.8852,-0.00034104,-0.00019786,0.0,0 STARLINK-5142,1 53984U 22125W   22323.91667824 -.00019786  00000-0 -34104-3 0  9994,2 53984  53.2157 230.2780 0001588  72.1582   4.8852 15.49924299  1308,6795.084,92.908,418.028,415.87,0.0
53984.0,STARLINK-5142,PAYLOAD,2022-11-20 04:00:00,15.49892153,0.0001646,53.2159,229.0842,66.5024,326.2608,0.0010111,0.00057371,0.0,0 STARLINK-5142,1 53984U 22125W   22324.16667824  .00057371  00000-0  10111-2 0  9993,2 53984  53.2159 229.0842 0001646  66.5024 326.2608 15.49892153  7497,6795.178000000001,92.91,418.162,415.925,0.0
53984.0,STARLINK-5142,PAYLOAD,2022-11-20 14:00:01,15.49906623,0.0001533,53.216,227.0905,73.8823,125.0772,0.00096819,0.00054927,0.0,0 STARLINK-5142,1 53984U 22125W   22324.58334491  .00054927  00000-0  96819-3 0  9994,2 53984  53.2160 227.0905 0001533  73.8823 125.0772 15.49906623  1309,6795.136,92.909,418.043,415.959,0.0
53984.0,STARLINK-5142,PAYLOAD,2022-11-20 22:00:00,15.49954823,0.0001644,53.2163,225.4986,71.3314,188.5886,-0.00024747,-0.00014506,0.0,0 STARLINK-5142,1 53984U 22125W   22324.91667824 -.00014506  00000-0 -24747-3 0  9992,2 53984  53.2163 225.4986 0001644  71.3314 188.5886 15.49954823  7608,6794.995,92.906,417.977,415.74300000000005,0.0
53984.0,STARLINK-5142,PAYLOAD,2022-11-21 14:00:01,15.49878635,0.0001281999999999,53.2167,222.3095,70.543,311.3532,0.0010750999999999,0.00061029,0.0,0 STARLINK-5142,1 53984U 22125W   22325.58334491  .00061029  00000-0  10751-2 0  9996,2 53984  53.2167 222.3095 0001282  70.5430 311.3532 15.49878635  1308,6795.218000000003,92.911,417.954,416.212,0.0
53984.0,STARLINK-5142,PAYLOAD,2022-11-21 20:00:01,15.50120556,0.0001269,53.2173,221.1133,75.3059,262.2505,-0.013081,-0.00686751,0.0,0 STARLINK-5142,1 53984U 22125W   22325.83334491 -.00686751  00000-0 -13081-1 0  9999,2 53984  53.2173 221.1133 0001269  75.3059 262.2505 15.50120556  7742,6794.511,92.896,417.23800000000006,415.514,0.0
53984.0,STARLINK-5142,PAYLOAD,2022-11-21 22:00:00,15.49997496,0.0001343,53.2175,220.7151,70.9233,11.9057,-0.012495,-0.00655741,0.0,0 STARLINK-5142,1 53984U 22125W   22325.91667824 -.00655741  00000-0 -12495-1 0  9990,2 53984  53.2175 220.7151 0001343  70.9233  11.9057 15.49997496  1307,6794.87,92.903,417.648,415.823,0.0
53984.0,STARLINK-5142,PAYLOAD,2022-11-22 14:00:01,15.48884344,0.0001373,53.2173,217.5272,62.7459,141.0718,-0.022819,-0.01144221,0.0,0 STARLINK-5142,1 53984U 22125W   22326.58335648 -.01144221  00000-0 -22819-1 0  9998,2 53984  53.2173 217.5272 0001373  62.7459 141.0718 15.48884344  7867,6798.126,92.97,420.924,419.057,0.0
53984.0,STARLINK-5142,PAYLOAD,2022-11-22 22:00:00,15.48069771,0.0001233,53.2174,215.9397,82.4204,180.5454,-0.023444,-0.01142417,0.0,0 STARLINK-5142,1 53984U 22125W   22326.91667824 -.01142417  00000-0 -23444-1 0  9999,2 53984  53.2174 215.9397 0001233  82.4204 180.5454 15.48069771  1307,6800.51,93.019,423.214,421.537,0.0
53984.0,STARLINK-5142,PAYLOAD,2022-11-23 12:00:02,15.46674796,0.00013,53.2173,213.162,69.9375,204.3466,-0.025445,-0.01177595,0.0,0 STARLINK-5142,1 53984U 22125W   22327.50002315 -.01177595  00000-0 -25445-1 0  9991,2 53984  53.2173 213.1620 0001300  69.9375 204.3466 15.46674796  8008,6804.598000000001,93.103,427.348,425.579,0.0
53984.0,STARLINK-5142,PAYLOAD,2022-11-23 14:00:01,15.46455572,0.0001222,53.217,212.7654,61.6847,316.7687,-0.025246,-0.01161035,0.0,0 STARLINK-5142,1 53984U 22125W   22327.58334491 -.01161035  00000-0 -25246-1 0  9993,2 53984  53.2170 212.7654 0001222  61.6847 316.7687 15.46455572  1301,6805.2419999999975,93.116,427.93800000000016,426.275,0.0
53984.0,STARLINK-5142,PAYLOAD,2022-11-23 22:00:00,15.4567243,0.0001219,53.2172,211.1828,79.9569,354.7606,-0.026944,-0.01201985,0.0,0 STARLINK-5142,1 53984U 22125W   22327.91667824 -.01201985  00000-0 -26944-1 0  9994,2 53984  53.2172 211.1828 0001219  79.9569 354.7606 15.45672430  1304,6807.54,93.163,430.235,428.575,0.0
53984.0,STARLINK-5142,PAYLOAD,2022-11-24 14:00:01,15.440104000000002,0.0001319,53.2169,208.0196,70.0914,114.2707,-0.027321,-0.01155531,0.0,0 STARLINK-5142,1 53984U 22125W   22328.58334491 -.01155531  00000-0 -27321-1 0  9994,2 53984  53.2169 208.0196 0001319  70.0914 114.2707 15.44010400  8175,6812.424,93.264,435.18800000000016,433.391,0.0
53984.0,STARLINK-5142,PAYLOAD,2022-11-24 22:00:00,15.43202766,0.0001286,53.2172,206.443,87.5067,150.1973,-0.028259,-0.01162152,0.0,0 STARLINK-5142,1 53984U 22125W   22328.91667824 -.01162152  00000-0 -28259-1 0  9998,2 53984  53.2172 206.4430 0001286  87.5067 150.1973 15.43202766  1306,6814.801,93.312,437.542,435.79,0.0
53984.0,STARLINK-5142,PAYLOAD,2022-11-25 14:00:01,15.41548694,0.0001136,53.2169,203.2912,62.7389,278.7384,-0.028865,-0.01125877,0.0,0 STARLINK-5142,1 53984U 22125W   22329.58334491 -.01125877  00000-0 -28865-1 0  9999,2 53984  53.2169 203.2912 0001136  62.7389 278.7384 15.41548694  8321,6819.675,93.413,442.315,440.765,0.0
53984.0,STARLINK-5142,PAYLOAD,2022-11-25 22:00:00,15.40767173,0.0001099,53.2172,201.7203,78.2347,313.639,-0.030892,-0.01169639,0.0,0 STARLINK-5142,1 53984U 22125W   22329.91667824 -.01169639  00000-0 -30892-1 0  9992,2 53984  53.2172 201.7203 0001099  78.2347 313.6390 15.40767173  1306,6821.981,93.46,444.596,443.096,0.0
53984.0,STARLINK-5142,PAYLOAD,2022-11-26 04:00:00,15.40167722,0.0001151,53.2167,200.543,58.5501,280.4815,-0.031742,-0.01177326,0.0,0 STARLINK-5142,1 53984U 22125W   22330.16667824 -.01177326  00000-0 -31742-1 0  9998,2 53984  53.2167 200.5430 0001151  58.5501 280.4815 15.40167722  8417,6823.751,93.496,446.401,444.83,0.0
53984.0,STARLINK-5142,PAYLOAD,2022-11-26 14:00:01,15.39128034,0.0001518,53.217,198.5803,60.2118,69.5615,-0.032169,-0.01154964,0.0,0 STARLINK-5142,1 53984U 22125W   22330.58334491 -.01154964  00000-0 -32169-1 0  9992,2 53984  53.2170 198.5803 0001518  60.2118  69.5615 15.39128034  1308,6826.824000000001,93.559,449.725,447.652,0.0
53984.0,STARLINK-5142,PAYLOAD,2022-11-26 22:00:00,15.38291147,0.0001447,53.2172,197.0153,75.5879,101.6745,-0.032026,-0.01121613,0.0,0 STARLINK-5142,1 53984U 22125W   22330.91667824 -.01121613  00000-0 -32026-1 0  9995,2 53984  53.2172 197.0153 0001447  75.5879 101.6745 15.38291147  1303,6829.299,93.61,452.153,450.176,0.0
53984.0,STARLINK-5142,PAYLOAD,2022-11-27 06:00:00,15.37513205,0.000139,53.2167,195.4505,64.459,159.2879,-0.03444,-0.01171037,0.0,0 STARLINK-5142,1 53984U 22125W   22331.25001157 -.01171037  00000-0 -34440-1 0  9991,2 53984  53.2167 195.4505 0001390  64.4590 159.2879 15.37513205  8589,6831.603,93.658,454.417,452.518,0.0
53984.0,STARLINK-5142,PAYLOAD,2022-11-27 14:00:01,15.36687908,0.0001291999999999,53.2169,193.8869,64.0888,205.1872,-0.034814,-0.01153941,0.0,0 STARLINK-5142,1 53984U 22125W   22331.58334491 -.01153941  00000-0 -34814-1 0  9996,2 53984  53.2169 193.8869 0001292  64.0888 205.1872 15.36687908  1301,6834.049,93.708,456.796,455.031,0.0
